ZHUHAI-1 01 (CAS-4A)    
1 42761U 17034D   23121.22245432  .00009058  00000+0  46518-3 0  9996
2 42761  43.0174  15.1471 0010429 166.5960 343.2466 15.16658659324514
MAX VALIER SAT          
1 42778U 17036P   23121.57630082  .00019551  00000+0  54598-3 0  9999
2 42778  97.1618 157.5764 0006292 261.2915  98.7617 15.36732116325566
RADFXSAT (FOX-1B)       
1 43017U 17073E   23121.58193575  .00004874  00000+0  34789-3 0  9991
2 43017  97.6373   7.7701 0234207 222.8212 135.4555 14.85486469294267
FOX-1D (AO-92)          
1 43137U 18004AC  23121.16236745  .00029986  00000+0  68297-3 0  9992
2 43137  97.3303 199.9532 0004353 306.0927  53.9918 15.42888840295059
DIWATA-2B               
1 43678U 18084H   23121.62050910  .00002198  00000+0  21563-3 0  9990
2 43678  98.0142 264.6752 0008542 321.5975  38.4633 14.93267655245317
ES'HAIL 2               
1 43700U 18090A   23121.51854962  .00000152  00000+0  00000+0 0  9997
2 43700   0.0184 267.0116 0001365 160.3070   4.3543  1.00274074 16218
FOX-1CLIFF (AO-95)      
1 43770U 18099N   23121.45096111  .00005250  00000+0  43351-3 0  9994
2 43770  97.5755 184.2491 0010358 286.1062  73.9021 14.99356366240608
ITASAT 1                
1 43786U 18099AE  23121.17689637  .00004619  00000+0  38443-3 0  9995
2 43786  97.5776 185.0195 0012555 277.3110  82.6687 14.99093189240601
JY1SAT (JO-97)          
1 43803U 18099AX  23120.70358376  .00005455  00000+0  43946-3 0  9999
2 43803  97.5715 184.5121 0011754 265.2853  94.7029 15.00276363240577
UWE-4                   
1 43880U 18111E   23121.38801054  .00006119  00000+0  47454-3 0  9996
2 43880  97.6415  27.3136 0015444 340.6264  19.4372 15.01656794237341
NEXUS (FO-99)           
1 43937U 19003F   23121.56941891  .00044465  00000+0  84273-3 0  9990
2 43937  97.0924 149.4986 0016204  91.8617 268.4490 15.48069251238822
JAISAT-1                
1 44419U 19038F   23121.50609246  .00021509  00000+0  78324-3 0  9997
2 44419  97.6719 101.7561 0018229 104.7019 255.6242 15.28075686211400
DUCHIFAT-3              
1 44854U 19089C   23121.08380750  .00009237  00000+0  63366-3 0  9999
2 44854  36.9643  12.6445 0010694 290.8510 178.7508 15.05511180185732
CAS-6 (TIANQIN 1)       
1 44881U 19093C   23121.52227385  .00001396  00000+0  18057-3 0  9992
2 44881  97.8612 200.7678 0013724 226.6938 133.3116 14.82427311181880
RS-44 & BREEZE-KM R/B   
1 44909U 19096E   23121.23492934  .00000011  00000+0  78554-5 0  9991
2 44909  82.5262  19.1451 0216452 296.9357  60.9777 12.79720277156153
BY70-2                  
1 45857U 20042B   23121.59249900  .00020328  00000+0  21747-2 0  9991
2 45857  97.9258 201.3937 0011345 156.4714 203.7002 14.88707171152600
SALSAT                  
1 46495U 20068K   23121.39258968  .00005449  00000+0  36439-3 0  9992
2 46495  97.7667  68.9261 0013852 280.6195  79.3472 15.07308432142028
RADFXSAT-2 (AO-109)     
1 47311U 21002C   23121.56195897  .00025604  00000+0  70944-3 0  9993
2 47311  60.6810 237.4780 0021452 150.6130 209.6175 15.36684206127113
UVSQ-SAT                
1 47438U 21006AB  23121.40426204  .00014007  00000+0  59777-3 0  9995
2 47438  97.3893 179.2222 0008947 238.7607 121.2753 15.22979061125521
DIY-1 (ARDUIQUBE)       
1 47963U 21022AH  23121.55207136  .00117749  00000+0  23969-2 0  9993
2 47963  97.5024  28.0747 0014184 104.5080 255.7743 15.45726372115352
XW-3 (CAS-9)            
1 50466U 21131B   23121.64881731  .00000649  00000+0  22543-3 0  9993
2 50466  98.5516 203.3403 0003012 279.0617  81.0229 14.38856633 70668
TEVEL-3                 
1 50988U 22002E   23121.66200895  .00019737  00000+0  83172-3 0  9991
2 50988  97.4369 188.9980 0008534  50.3786 101.1758 15.23338095 71675
TEVEL-8                 
1 50989U 22002F   23121.47716361  .00019620  00000+0  82852-3 0  9996
2 50989  97.4382 188.8683 0008572  48.6899  77.9002 15.23268156 71646
TEVEL-5                 
1 50998U 22002Q   23121.49499191  .00020602  00000+0  84870-3 0  9991
2 50998  97.4360 189.1633 0009530  42.7891  84.7476 15.24087595 71674
TEVEL-6                 
1 50999U 22002R   23121.69579088  .00020581  00000+0  84755-3 0  9996
2 50999  97.4354 189.3584 0009483  41.8730 114.7522 15.24098643 71700
TEVEL-1                 
1 51013U 22002AF  23121.46873663  .00019617  00000+0  82795-3 0  9995
2 51013  97.4368 188.7554 0008283  49.8063  76.1988 15.23288084 71646
TEVEL-7                 
1 51062U 22002CG  23121.47873644  .00019702  00000+0  83163-3 0  9994
2 51062  97.4374 188.8436 0008500  47.4354  79.6828 15.23281238 71641
TEVEL-4                 
1 51063U 22002CH  23121.48292174  .00019681  00000+0  83185-3 0  9999
2 51063  97.4379 188.8357 0008334  47.8125  76.9834 15.23237679 71641
TEVEL-2                 
1 51069U 22002CP  23121.66382797  .00019754  00000+0  83247-3 0  9996
2 51069  97.4363 188.9730 0008347  49.5929 101.7883 15.23338244 71675
GREENCUBE               
1 53106U 22080B   23119.33596861 -.00000003  00000+0  00000+0 0  9996
2 53106  70.1690 336.7020 0008223 196.0222 164.0178  6.42557317 18611
RS29S (SXC3-2110 CYCLO*)
1 53373U 22096D   23121.49627059  .00031663  00000+0  89824-3 0  9993
2 53373  97.4172  27.3433 0002416  79.2278  27.1774 15.36162762 40510
RS32S (SXC3-212 MONITO*)
1 53374U 22096E   23121.57156725  .00028994  00000+0  83977-3 0  9996
2 53374  97.4155  27.3635 0001996  67.3128  33.1135 15.35531187 40529
RS34S (SXC3-218 KUZBAS*)
1 53375U 22096F   23121.60195399  .00024162  00000+0  73541-3 0  9990
2 53375  97.4172  27.1951 0001838  79.8584   4.6533 15.34001812 40517
RS23S (SXC3-21 UTMN)    
1 53376U 22096G   23121.58076685  .00024928  00000+0  74740-3 0  9996
2 53376  97.4171  27.2339 0001984  72.8945  46.5838 15.34471647 40514
RS28S (SXC3-214 MIET-A*)
1 53377U 22096H   23121.60211571  .00023308  00000+0  71383-3 0  9996
2 53377  97.4179  27.2011 0001762  64.5959  19.8493 15.33811589 40519
RS26S (KAI-1)           
1 53378U 22096J   23121.47484977  .00018805  00000+0  59898-3 0  9997
2 53378  97.4190  26.9307 0001455  69.6702  40.0368 15.32602988 40481
RS19S (SXC3-219 ISOI)   
1 53381U 22096M   23121.57978334  .00023040  00000+0  68929-3 0  9999
2 53381  97.4169  27.3827 0002420 182.7478 297.5261 15.34555256 40526
RS21S (CUBESX-HSE-2)    
1 53383U 22096P   23121.43208591  .00024124  00000+0  71541-3 0  9995
2 53383  97.4177  27.2819 0002556 189.8758 283.1306 15.34823798 40504
RS30S (SXC3-217 SIREN)  
1 53384U 22096Q   23121.67379674  .00019765  00000+0  60828-3 0  9994
2 53384  97.4181  27.4010 0002664 189.0650 228.7059 15.33688564 40530
RS20S (GEOSCAN-EDELVEIS)
1 53385U 22096R   23121.44458706  .00032515  00000+0  88057-3 0  9996
2 53385  97.4164  27.7065 0002937 178.9210 297.2755 15.37602405 40568
RS33S (SXC3-215 VIZARD) 
1 53386U 22096S   23121.45771125  .00042711  00000+0  10539-2 0  9999
2 53386  97.4163  28.1455 0003514 178.0788 299.2412 15.40401299 40585
CAS-5A (FO-118)         
1 54684U 22167C   23121.61689378  .00012944  00000+0  73536-3 0  9998
2 54684  97.5549 259.5697 0014889 134.0698 324.9607 15.12945377 21639
